[{"OBJECT_NAME":"ONEWEB-0398","OBJECT_ID":"2021-132K","EPOCH":"2025-09-08T23:32:58.515648","MEAN_MOTION":13.1141585,"ECCENTRICITY":0.00015582,"INCLINATION":87.878,"RA_OF_ASC_NODE":77.0726,"ARG_OF_PERICENTER":103.2644,"MEAN_ANOMALY":256.8658,"EPHEMERIS_TYPE":0,"CLASSIFICATION_TYPE":"U","NORAD_CAT_ID":50478,"ELEMENT_SET_NO":999,"REV_AT_EPOCH":17875,"BSTAR":0.00052965772,"MEAN_MOTION_DOT":2.0e-6,"MEAN_MOTION_DDOT":0},{"OBJECT_NAME":"ONEWEB-0399","OBJECT_ID":"2021-132L","EPOCH":"2025-09-09T06:32:54.892320","MEAN_MOTION":13.11418756,"ECCENTRICITY":0.0002249,"INCLINATION":87.8771,"RA_OF_ASC_NODE":77.0362,"ARG_OF_PERICENTER":84.2771,"MEAN_ANOMALY":275.8613,"EPHEMERIS_TYPE":0,"CLASSIFICATION_TYPE":"U","NORAD_CAT_ID":50479,"ELEMENT_SET_NO":999,"REV_AT_EPOCH":17878,"BSTAR":-0.00067255508,"MEAN_MOTION_DOT":-2.26e-6,"MEAN_MOTION_DDOT":0},{"OBJECT_NAME":"ONEWEB-0400","OBJECT_ID":"2021-132M","EPOCH":"2025-09-09T02:44:05.487360","MEAN_MOTION":13.1868536,"ECCENTRICITY":0.00017099,"INCLINATION":87.9179,"RA_OF_ASC_NODE":31.2547,"ARG_OF_PERICENTER":103.4183,"MEAN_ANOMALY":256.714,"EPHEMERIS_TYPE":0,"CLASSIFICATION_TYPE":"U","NORAD_CAT_ID":50480,"ELEMENT_SET_NO":999,"REV_AT_EPOCH":18456,"BSTAR":0.00022632617,"MEAN_MOTION_DOT":1.02e-6,"MEAN_MOTION_DDOT":0},{"OBJECT_NAME":"ONEWEB-0401","OBJECT_ID":"2021-132N","EPOCH":"2025-09-09T07:26:46.087296","MEAN_MOTION":13.18686848,"ECCENTRICITY":0.00016838,"INCLINATION":87.9183,"RA_OF_ASC_NODE":31.2122,"ARG_OF_PERICENTER":89.0667,"MEAN_ANOMALY":271.0658,"EPHEMERIS_TYPE":0,"CLASSIFICATION_TYPE":"U","NORAD_CAT_ID":50481,"ELEMENT_SET_NO":999,"REV_AT_EPOCH":18459,"BSTAR":0.00020932364,"MEAN_MOTION_DOT":9.5e-7,"MEAN_MOTION_DDOT":0},{"OBJECT_NAME":"ONEWEB-0402","OBJECT_ID":"2021-132P","EPOCH":"2025-09-09T02:55:59.280096","MEAN_MOTION":13.18684293,"ECCENTRICITY":0.00016196,"INCLINATION":87.9181,"RA_OF_ASC_NODE":31.2429,"ARG_OF_PERICENTER":75.5029,"MEAN_ANOMALY":284.6282,"EPHEMERIS_TYPE":0,"CLASSIFICATION_TYPE":"U","NORAD_CAT_ID":50482,"ELEMENT_SET_NO":999,"REV_AT_EPOCH":18459,"BSTAR":3.5808158e-5,"MEAN_MOTION_DOT":2.7e-7,"MEAN_MOTION_DDOT":0},{"OBJECT_NAME":"ONEWEB-0403","OBJECT_ID":"2021-132Q","EPOCH":"2025-09-08T22:03:48.188736","MEAN_MOTION":13.18684461,"ECCENTRICITY":0.00018538,"INCLINATION":87.9183,"RA_OF_ASC_NODE":31.3023,"ARG_OF_PERICENTER":97.7216,"MEAN_ANOMALY":262.4126,"EPHEMERIS_TYPE":0,"CLASSIFICATION_TYPE":"U","NORAD_CAT_ID":50483,"ELEMENT_SET_NO":999,"REV_AT_EPOCH":18452,"BSTAR":-0.00011384426,"MEAN_MOTION_DOT":-3.2e-7,"MEAN_MOTION_DDOT":0},{"OBJECT_NAME":"ONEWEB-0404","OBJECT_ID":"2021-132R","EPOCH":"2025-09-09T00:36:26.835840","MEAN_MOTION":13.11418952,"ECCENTRICITY":0.00020593,"INCLINATION":87.8776,"RA_OF_ASC_NODE":77.0922,"ARG_OF_PERICENTER":91.074,"MEAN_ANOMALY":269.0623,"EPHEMERIS_TYPE":0,"CLASSIFICATION_TYPE":"U","NORAD_CAT_ID":50484,"ELEMENT_SET_NO":999,"REV_AT_EPOCH":17884,"BSTAR":5.7577518e-5,"MEAN_MOTION_DOT":3.3e-7,"MEAN_MOTION_DDOT":0},{"OBJECT_NAME":"ONEWEB-0405","OBJECT_ID":"2021-132S","EPOCH":"2025-09-08T22:25:11.423136","MEAN_MOTION":13.18685012,"ECCENTRICITY":0.00017964,"INCLINATION":87.918,"RA_OF_ASC_NODE":31.2848,"ARG_OF_PERICENTER":86.5979,"MEAN_ANOMALY":273.5358,"EPHEMERIS_TYPE":0,"CLASSIFICATION_TYPE":"U","NORAD_CAT_ID":50485,"ELEMENT_SET_NO":999,"REV_AT_EPOCH":18492,"BSTAR":-0.00020881321,"MEAN_MOTION_DOT":-6.9e-7,"MEAN_MOTION_DDOT":0},{"OBJECT_NAME":"ONEWEB-0406","OBJECT_ID":"2021-132T","EPOCH":"2025-09-09T01:49:27.260544","MEAN_MOTION":13.18684609,"ECCENTRICITY":0.00021681,"INCLINATION":87.9183,"RA_OF_ASC_NODE":31.28,"ARG_OF_PERICENTER":107.947,"MEAN_ANOMALY":252.1899,"EPHEMERIS_TYPE":0,"CLASSIFICATION_TYPE":"U","NORAD_CAT_ID":50486,"ELEMENT_SET_NO":999,"REV_AT_EPOCH":18457,"BSTAR":-9.9791915e-5,"MEAN_MOTION_DOT":-2.6e-7,"MEAN_MOTION_DDOT":0},{"OBJECT_NAME":"ONEWEB-0407","OBJECT_ID":"2021-132U","EPOCH":"2025-09-08T20:12:10.019232","MEAN_MOTION":13.18696296,"ECCENTRICITY":0.0001862,"INCLINATION":87.9182,"RA_OF_ASC_NODE":31.3116,"ARG_OF_PERICENTER":93.7235,"MEAN_ANOMALY":266.411,"EPHEMERIS_TYPE":0,"CLASSIFICATION_TYPE":"U","NORAD_CAT_ID":50487,"ELEMENT_SET_NO":999,"REV_AT_EPOCH":18448,"BSTAR":-0.0085702894,"MEAN_MOTION_DOT":-3.365e-5,"MEAN_MOTION_DDOT":0},{"OBJECT_NAME":"ONEWEB-0409","OBJECT_ID":"2021-132V","EPOCH":"2025-09-09T00:34:00.287616","MEAN_MOTION":13.11419139,"ECCENTRICITY":0.00019265,"INCLINATION":87.8781,"RA_OF_ASC_NODE":77.0521,"ARG_OF_PERICENTER":96.4838,"MEAN_ANOMALY":263.6509,"EPHEMERIS_TYPE":0,"CLASSIFICATION_TYPE":"U","NORAD_CAT_ID":50488,"ELEMENT_SET_NO":999,"REV_AT_EPOCH":17873,"BSTAR":-0.00024660075,"MEAN_MOTION_DOT":-7.5e-7,"MEAN_MOTION_DDOT":0},{"OBJECT_NAME":"ONEWEB-0412","OBJECT_ID":"2021-132W","EPOCH":"2025-09-09T03:12:36.175392","MEAN_MOTION":13.18687224,"ECCENTRICITY":0.00017142,"INCLINATION":87.918,"RA_OF_ASC_NODE":31.2661,"ARG_OF_PERICENTER":85.0559,"MEAN_ANOMALY":275.0769,"EPHEMERIS_TYPE":0,"CLASSIFICATION_TYPE":"U","NORAD_CAT_ID":50489,"ELEMENT_SET_NO":999,"REV_AT_EPOCH":18461,"BSTAR":0.0001765247,"MEAN_MOTION_DOT":8.3e-7,"MEAN_MOTION_DDOT":0},{"OBJECT_NAME":"ONEWEB-0413","OBJECT_ID":"2021-132X","EPOCH":"2025-09-09T06:58:15.678336","MEAN_MOTION":13.18687358,"ECCENTRICITY":0.00015413,"INCLINATION":87.9184,"RA_OF_ASC_NODE":31.2514,"ARG_OF_PERICENTER":86.257,"MEAN_ANOMALY":273.8738,"EPHEMERIS_TYPE":0,"CLASSIFICATION_TYPE":"U","NORAD_CAT_ID":50490,"ELEMENT_SET_NO":999,"REV_AT_EPOCH":18457,"BSTAR":0.0001541888,"MEAN_MOTION_DOT":7.4e-7,"MEAN_MOTION_DDOT":0},{"OBJECT_NAME":"ONEWEB-0414","OBJECT_ID":"2021-132Y","EPOCH":"2025-09-09T02:58:20.699616","MEAN_MOTION":13.18687011,"ECCENTRICITY":0.00018623,"INCLINATION":87.9179,"RA_OF_ASC_NODE":31.2439,"ARG_OF_PERICENTER":89.9309,"MEAN_ANOMALY":270.2037,"EPHEMERIS_TYPE":0,"CLASSIFICATION_TYPE":"U","NORAD_CAT_ID":50491,"ELEMENT_SET_NO":999,"REV_AT_EPOCH":18458,"BSTAR":2.4832334e-5,"MEAN_MOTION_DOT":2.3e-7,"MEAN_MOTION_DDOT":0},{"OBJECT_NAME":"ONEWEB-0417","OBJECT_ID":"2021-132Z","EPOCH":"2025-09-09T03:10:12.950976","MEAN_MOTION":13.18687282,"ECCENTRICITY":0.00019492,"INCLINATION":87.9185,"RA_OF_ASC_NODE":31.275,"ARG_OF_PERICENTER":99.4809,"MEAN_ANOMALY":260.6544,"EPHEMERIS_TYPE":0,"CLASSIFICATION_TYPE":"U","NORAD_CAT_ID":50492,"ELEMENT_SET_NO":999,"REV_AT_EPOCH":18456,"BSTAR":-2.8283923e-5,"MEAN_MOTION_DOT":2.0e-8,"MEAN_MOTION_DDOT":0},{"OBJECT_NAME":"ONEWEB-0418","OBJECT_ID":"2021-132AA","EPOCH":"2025-09-08T21:56:30.919200","MEAN_MOTION":13.18687913,"ECCENTRICITY":0.00022122,"INCLINATION":87.9183,"RA_OF_ASC_NODE":31.304,"ARG_OF_PERICENTER":102.6591,"MEAN_ANOMALY":257.4788,"EPHEMERIS_TYPE":0,"CLASSIFICATION_TYPE":"U","NORAD_CAT_ID":50493,"ELEMENT_SET_NO":999,"REV_AT_EPOCH":18459,"BSTAR":-1.2207589e-5,"MEAN_MOTION_DOT":8.0e-8,"MEAN_MOTION_DDOT":0},{"OBJECT_NAME":"ONEWEB-0419","OBJECT_ID":"2021-132AB","EPOCH":"2025-09-09T02:01:21.556992","MEAN_MOTION":13.18687721,"ECCENTRICITY":0.00018607,"INCLINATION":87.9179,"RA_OF_ASC_NODE":31.2713,"ARG_OF_PERICENTER":106.8383,"MEAN_ANOMALY":253.2953,"EPHEMERIS_TYPE":0,"CLASSIFICATION_TYPE":"U","NORAD_CAT_ID":50494,"ELEMENT_SET_NO":999,"REV_AT_EPOCH":18453,"BSTAR":-6.9756917e-5,"MEAN_MOTION_DOT":-1.5e-7,"MEAN_MOTION_DDOT":0}]
