ONEWEB-0398             
1 50478U 21132K   25251.98123282  .00000200  00000+0  52966-3 0  9995
2 50478  87.8780  77.0726 0001558 103.2644 256.8658 13.11415850178759
ONEWEB-0399             
1 50479U 21132L   25252.27285755 -.00000226  00000+0 -67256-3 0  9991
2 50479  87.8771  77.0362 0002249  84.2771 275.8613 13.11418756178786
ONEWEB-0400             
1 50480U 21132M   25252.11395240  .00000102  00000+0  22633-3 0  9998
2 50480  87.9179  31.2547 0001709 103.4183 256.7140 13.18685360184569
ONEWEB-0401             
1 50481U 21132N   25252.31025564  .00000095  00000+0  20932-3 0  9991
2 50481  87.9183  31.2122 0001683  89.0667 271.0658 13.18686848184590
ONEWEB-0402             
1 50482U 21132P   25252.12221389  .00000027  00000+0  35808-4 0  9998
2 50482  87.9181  31.2429 0001619  75.5029 284.6282 13.18684293184595
ONEWEB-0403             
1 50483U 21132Q   25251.91930774 -.00000032  00000+0 -11384-3 0  9990
2 50483  87.9183  31.3023 0001853  97.7216 262.4126 13.18684461184524
ONEWEB-0404             
1 50484U 21132R   25252.02531060  .00000033  00000+0  57578-4 0  9994
2 50484  87.8776  77.0922 0002059  91.0740 269.0623 13.11418952178841
ONEWEB-0405             
1 50485U 21132S   25251.93415999 -.00000069  00000+0 -20881-3 0  9993
2 50485  87.9180  31.2848 0001796  86.5979 273.5358 13.18685012184922
ONEWEB-0406             
1 50486U 21132T   25252.07600996 -.00000026  00000+0 -99792-4 0  9994
2 50486  87.9183  31.2800 0002168 107.9470 252.1899 13.18684609184577
ONEWEB-0407             
1 50487U 21132U   25251.84178263 -.00003365  00000+0 -85703-2 0  9990
2 50487  87.9182  31.3116 0001862  93.7235 266.4110 13.18696296184488
ONEWEB-0409             
1 50488U 21132V   25252.02361444 -.00000075  00000+0 -24660-3 0  9998
2 50488  87.8781  77.0521 0001926  96.4838 263.6509 13.11419139178734
ONEWEB-0412             
1 50489U 21132W   25252.13375203  .00000083  00000+0  17652-3 0  9999
2 50489  87.9180  31.2661 0001714  85.0559 275.0769 13.18687224184613
ONEWEB-0413             
1 50490U 21132X   25252.29045924  .00000074  00000+0  15419-3 0  9991
2 50490  87.9184  31.2514 0001541  86.2570 273.8738 13.18687358184575
ONEWEB-0414             
1 50491U 21132Y   25252.12385069  .00000023  00000+0  24832-4 0  9995
2 50491  87.9179  31.2439 0001862  89.9309 270.2037 13.18687011184582
ONEWEB-0417             
1 50492U 21132Z   25252.13209434  .00000002  00000+0 -28284-4 0  9991
2 50492  87.9185  31.2750 0001949  99.4809 260.6544 13.18687282184567
ONEWEB-0418             
1 50493U 21132AA  25251.91424675  .00000008  00000+0 -12208-4 0  9998
2 50493  87.9183  31.3040 0002212 102.6591 257.4788 13.18687913184596
ONEWEB-0419             
1 50494U 21132AB  25252.08427728 -.00000015  00000+0 -69757-4 0  9990
2 50494  87.9179  31.2713 0001860 106.8383 253.2953 13.18687721184530
